{"fetched_at":"2026-07-10T07:58:39.953Z","source":"https://celestrak.org/NORAD/elements/gp.php?GROUP=kuiper&FORMAT=JSON","constellation":"kuiper","records":[{"OBJECT_NAME":"KUIPER-00114","OBJECT_ID":"2025-171V","EPOCH":"2026-07-09T18:03:36.421632","CLASSIFICATION_TYPE":"U","MEAN_MOTION":14.79932753,"ECCENTRICITY":0.0000577,"INCLINATION":51.8999,"RA_OF_ASC_NODE":355.8341,"ARG_OF_PERICENTER":106.3171,"MEAN_ANOMALY":253.7855,"EPHEMERIS_TYPE":0,"NORAD_CAT_ID":65151,"ELEMENT_SET_NO":999,"REV_AT_EPOCH":5071,"BSTAR":0.00034197,"MEAN_MOTION_DOT":0.00002387,"MEAN_MOTION_DDOT":0},{"OBJECT_NAME":"KUIPER-00115","OBJECT_ID":"2025-171W","EPOCH":"2026-07-09T16:38:00.877344","CLASSIFICATION_TYPE":"U","MEAN_MOTION":14.79932521,"ECCENTRICITY":0.0000614,"INCLINATION":51.9002,"RA_OF_ASC_NODE":348.597,"ARG_OF_PERICENTER":107.8447,"MEAN_ANOMALY":252.2583,"EPHEMERIS_TYPE":0,"NORAD_CAT_ID":65152,"ELEMENT_SET_NO":999,"REV_AT_EPOCH":5081,"BSTAR":0.00033497,"MEAN_MOTION_DOT":0.00002333,"MEAN_MOTION_DDOT":0},{"OBJECT_NAME":"KUIPER-00116","OBJECT_ID":"2025-171X","EPOCH":"2026-07-09T17:18:52.824672","CLASSIFICATION_TYPE":"U","MEAN_MOTION":14.79929174,"ECCENTRICITY":0.0000621,"INCLINATION":51.9005,"RA_OF_ASC_NODE":353.507,"ARG_OF_PERICENTER":104.1608,"MEAN_ANOMALY":255.9423,"EPHEMERIS_TYPE":0,"NORAD_CAT_ID":65153,"ELEMENT_SET_NO":999,"REV_AT_EPOCH":5074,"BSTAR":0.00035815,"MEAN_MOTION_DOT":0.0000251,"MEAN_MOTION_DDOT":0},{"OBJECT_NAME":"KUIPER-00118","OBJECT_ID":"2025-171Y","EPOCH":"2026-07-09T17:14:54.720096","CLASSIFICATION_TYPE":"U","MEAN_MOTION":14.79930657,"ECCENTRICITY":0.0000613,"INCLINATION":51.9001,"RA_OF_ASC_NODE":355.9684,"ARG_OF_PERICENTER":90.0742,"MEAN_ANOMALY":270.029,"EPHEMERIS_TYPE":0,"NORAD_CAT_ID":65154,"ELEMENT_SET_NO":999,"REV_AT_EPOCH":5071,"BSTAR":0.00031422,"MEAN_MOTION_DOT":0.00002175,"MEAN_MOTION_DDOT":0},{"OBJECT_NAME":"KUIPER-00119","OBJECT_ID":"2025-171Z","EPOCH":"2026-07-09T17:34:25.414176","CLASSIFICATION_TYPE":"U","MEAN_MOTION":14.79926769,"ECCENTRICITY":0.0000198,"INCLINATION":51.9018,"RA_OF_ASC_NODE":343.5049,"ARG_OF_PERICENTER":132.3372,"MEAN_ANOMALY":227.7607,"EPHEMERIS_TYPE":0,"NORAD_CAT_ID":65155,"ELEMENT_SET_NO":999,"REV_AT_EPOCH":5088,"BSTAR":0.00034393,"MEAN_MOTION_DOT":0.00002401,"MEAN_MOTION_DDOT":0},{"OBJECT_NAME":"KUIPER-00120","OBJECT_ID":"2025-217A","EPOCH":"2026-07-09T03:48:30.737376","CLASSIFICATION_TYPE":"U","MEAN_MOTION":14.79922091,"ECCENTRICITY":0.0000505,"INCLINATION":51.8977,"RA_OF_ASC_NODE":235.9211,"ARG_OF_PERICENTER":94.1708,"MEAN_ANOMALY":265.9312,"EPHEMERIS_TYPE":0,"NORAD_CAT_ID":65762,"ELEMENT_SET_NO":999,"REV_AT_EPOCH":4272,"BSTAR":0.00023039263,"MEAN_MOTION_DOT":0.00001535,"MEAN_MOTION_DDOT":0},{"OBJECT_NAME":"KUIPER-00132","OBJECT_ID":"2025-217B","EPOCH":"2026-07-09T05:35:00.059712","CLASSIFICATION_TYPE":"U","MEAN_MOTION":15.43233543,"ECCENTRICITY":0.00075955,"INCLINATION":51.8547,"RA_OF_ASC_NODE":131.7971,"ARG_OF_PERICENTER":43.7957,"MEAN_ANOMALY":316.3634,"EPHEMERIS_TYPE":0,"NORAD_CAT_ID":65763,"ELEMENT_SET_NO":999,"REV_AT_EPOCH":4417,"BSTAR":0.00082928274,"MEAN_MOTION_DOT":0.00037246,"MEAN_MOTION_DDOT":0},{"OBJECT_NAME":"KUIPER-00133","OBJECT_ID":"2025-217C","EPOCH":"2026-07-08T12:24:43.369632","CLASSIFICATION_TYPE":"U","MEAN_MOTION":14.79921666,"ECCENTRICITY":0.00005104,"INCLINATION":51.9034,"RA_OF_ASC_NODE":238.8652,"ARG_OF_PERICENTER":88.0563,"MEAN_ANOMALY":272.0458,"EPHEMERIS_TYPE":0,"NORAD_CAT_ID":65764,"ELEMENT_SET_NO":999,"REV_AT_EPOCH":4263,"BSTAR":0.00019789623,"MEAN_MOTION_DOT":0.00001287,"MEAN_MOTION_DDOT":0},{"OBJECT_NAME":"KUIPER-00139","OBJECT_ID":"2025-217D","EPOCH":"2026-07-09T00:35:53.068992","CLASSIFICATION_TYPE":"U","MEAN_MOTION":14.79925818,"ECCENTRICITY":0.0000531,"INCLINATION":51.8972,"RA_OF_ASC_NODE":204.08,"ARG_OF_PERICENTER":81.6473,"MEAN_ANOMALY":278.4549,"EPHEMERIS_TYPE":0,"NORAD_CAT_ID":65765,"ELEMENT_SET_NO":999,"REV_AT_EPOCH":4316,"BSTAR":0.00025007774,"MEAN_MOTION_DOT":0.00001685,"MEAN_MOTION_DDOT":0},{"OBJECT_NAME":"KUIPER-00142","OBJECT_ID":"2025-217E","EPOCH":"2026-07-09T02:38:26.079648","CLASSIFICATION_TYPE":"U","MEAN_MOTION":14.79929459,"ECCENTRICITY":0.00005203,"INCLINATION":51.8986,"RA_OF_ASC_NODE":218.6634,"ARG_OF_PERICENTER":93.5836,"MEAN_ANOMALY":266.5186,"EPHEMERIS_TYPE":0,"NORAD_CAT_ID":65766,"ELEMENT_SET_NO":999,"REV_AT_EPOCH":4296,"BSTAR":0.0002472884,"MEAN_MOTION_DOT":0.00001664,"MEAN_MOTION_DDOT":0},{"OBJECT_NAME":"KUIPER-00145","OBJECT_ID":"2025-217F","EPOCH":"2026-07-09T02:34:33.229056","CLASSIFICATION_TYPE":"U","MEAN_MOTION":14.79909139,"ECCENTRICITY":0.00005733,"INCLINATION":51.8988,"RA_OF_ASC_NODE":221.1959,"ARG_OF_PERICENTER":86.5311,"MEAN_ANOMALY":273.5717,"EPHEMERIS_TYPE":0,"NORAD_CAT_ID":65767,"ELEMENT_SET_NO":999,"REV_AT_EPOCH":4292,"BSTAR":0.00025010218,"MEAN_MOTION_DOT":0.00001685,"MEAN_MOTION_DDOT":0},{"OBJECT_NAME":"KUIPER-00147","OBJECT_ID":"2025-217G","EPOCH":"2026-07-06T10:29:34.682208","CLASSIFICATION_TYPE":"U","MEAN_MOTION":14.79925779,"ECCENTRICITY":0.00006,"INCLINATION":51.8971,"RA_OF_ASC_NODE":235.4853,"ARG_OF_PERICENTER":88.5903,"MEAN_ANOMALY":271.5128,"EPHEMERIS_TYPE":0,"NORAD_CAT_ID":65768,"ELEMENT_SET_NO":999,"REV_AT_EPOCH":4249,"BSTAR":-0.00002926291,"MEAN_MOTION_DOT":-0.00000444,"MEAN_MOTION_DDOT":0},{"OBJECT_NAME":"KUIPER-00148","OBJECT_ID":"2025-217H","EPOCH":"2026-07-09T00:18:09.637056","CLASSIFICATION_TYPE":"U","MEAN_MOTION":14.7612588,"ECCENTRICITY":0.00009123,"INCLINATION":51.9032,"RA_OF_ASC_NODE":206.5074,"ARG_OF_PERICENTER":308.5502,"MEAN_ANOMALY":51.5377,"EPHEMERIS_TYPE":0,"NORAD_CAT_ID":65769,"ELEMENT_SET_NO":999,"REV_AT_EPOCH":4312,"BSTAR":0.00023173901,"MEAN_MOTION_DOT":0.00001401,"MEAN_MOTION_DDOT":0},{"OBJECT_NAME":"KUIPER-00150","OBJECT_ID":"2025-217J","EPOCH":"2026-07-09T03:03:47.025504","CLASSIFICATION_TYPE":"U","MEAN_MOTION":14.79927428,"ECCENTRICITY":0.00005202,"INCLINATION":51.9005,"RA_OF_ASC_NODE":233.622,"ARG_OF_PERICENTER":103.1557,"MEAN_ANOMALY":256.9463,"EPHEMERIS_TYPE":0,"NORAD_CAT_ID":65770,"ELEMENT_SET_NO":999,"REV_AT_EPOCH":4275,"BSTAR":0.000082076698,"MEAN_MOTION_DOT":0.00000405,"MEAN_MOTION_DDOT":0},{"OBJECT_NAME":"KUIPER-00151","OBJECT_ID":"2025-217K","EPOCH":"2026-07-09T14:36:07.018848","CLASSIFICATION_TYPE":"U","MEAN_MOTION":14.79931885,"ECCENTRICITY":0.0000471,"INCLINATION":51.8994,"RA_OF_ASC_NODE":223.9935,"ARG_OF_PERICENTER":83.572,"MEAN_ANOMALY":276.5296,"EPHEMERIS_TYPE":0,"NORAD_CAT_ID":65771,"ELEMENT_SET_NO":999,"REV_AT_EPOCH":4293,"BSTAR":0.00017667,"MEAN_MOTION_DOT":0.00001126,"MEAN_MOTION_DDOT":0},{"OBJECT_NAME":"KUIPER-00152","OBJECT_ID":"2025-217L","EPOCH":"2026-07-09T01:08:58.804512","CLASSIFICATION_TYPE":"U","MEAN_MOTION":14.79924396,"ECCENTRICITY":0.00004884,"INCLINATION":51.8997,"RA_OF_ASC_NODE":213.956,"ARG_OF_PERICENTER":87.7724,"MEAN_ANOMALY":272.3294,"EPHEMERIS_TYPE":0,"NORAD_CAT_ID":65772,"ELEMENT_SET_NO":999,"REV_AT_EPOCH":4302,"BSTAR":0.000015795518,"MEAN_MOTION_DOT":-0.00000101,"MEAN_MOTION_DDOT":0}]}
