KUIPER-00114            
1 65151U 25171V   26190.75250488  .00002387  00000+0  34197-3 0  9997
2 65151  51.8999 355.8341 0000577 106.3171 253.7855 14.79932753 50716
KUIPER-00115            
1 65152U 25171W   26190.69306571  .00002333  00000+0  33497-3 0  9999
2 65152  51.9002 348.5970 0000614 107.8447 252.2583 14.79932521 50810
KUIPER-00116            
1 65153U 25171X   26190.72144473  .00002510  00000+0  35815-3 0  9998
2 65153  51.9005 353.5070 0000621 104.1608 255.9423 14.79929174 50743
KUIPER-00118            
1 65154U 25171Y   26190.71868889  .00002175  00000+0  31422-3 0  9999
2 65154  51.9001 355.9684 0000613  90.0742 270.0290 14.79930657 50715
KUIPER-00119            
1 65155U 25171Z   26190.73223859  .00002401  00000+0  34393-3 0  9996
2 65155  51.9018 343.5049 0000198 132.3372 227.7607 14.79926769 50887
KUIPER-00120            
1 65762U 25217A   26190.15868909  .00001535  00000+0  23039-3 0  9990
2 65762  51.8977 235.9211 0000505  94.1708 265.9312 14.79922091 42724
KUIPER-00132            
1 65763U 25217B   26190.23263958  .00037246  00000+0  82928-3 0  9993
2 65763  51.8547 131.7971 0007595  43.7957 316.3634 15.43233543 44174
KUIPER-00133            
1 65764U 25217C   26189.51716863  .00001287  00000+0  19790-3 0  9994
2 65764  51.9034 238.8652 0000510  88.0563 272.0458 14.79921666 42636
KUIPER-00139            
1 65765U 25217D   26190.02491978  .00001685  00000+0  25008-3 0  9991
2 65765  51.8972 204.0800 0000531  81.6473 278.4549 14.79925818 43162
KUIPER-00142            
1 65766U 25217E   26190.11002407  .00001664  00000+0  24729-3 0  9993
2 65766  51.8986 218.6634 0000520  93.5836 266.5186 14.79929459 42964
KUIPER-00145            
1 65767U 25217F   26190.10732904  .00001685  00000+0  25010-3 0  9992
2 65767  51.8988 221.1959 0000573  86.5311 273.5717 14.79909139 42921
KUIPER-00147            
1 65768U 25217G   26187.43720697 -.00000444  00000+0 -29263-4 0  9990
2 65768  51.8971 235.4853 0000600  88.5903 271.5128 14.79925779 42499
KUIPER-00148            
1 65769U 25217H   26190.01261154  .00001401  00000+0  23174-3 0  9993
2 65769  51.9032 206.5074 0000912 308.5502  51.5377 14.76125880 43124
KUIPER-00150            
1 65770U 25217J   26190.12762761  .00000405  00000+0  82077-4 0  9998
2 65770  51.9005 233.6220 0000520 103.1557 256.9463 14.79927428 42750
KUIPER-00151            
1 65771U 25217K   26190.60841457  .00001126  00000+0  17667-3 0  9995
2 65771  51.8994 223.9935 0000471  83.5720 276.5296 14.79931885 42934
KUIPER-00152            
1 65772U 25217L   26190.04790283 -.00000101  00000+0  15796-4 0  9999
2 65772  51.8997 213.9560 0000488  87.7724 272.3294 14.79924396 43021
